{
  "type": "FeatureCollection",
  "features": [
    {
      "type": "Feature",
      "properties": {
        "norad_id": 31466,
        "name": "FENGYUN 1C DEB",
        "group": "fengyun-1c-debris",
        "lat": 64.23038302348328,
        "lon": -106.52387112875606,
        "alt_km": 878.4960906818087,
        "timestamp": "2025-12-08T23:34:04.252075+00:00",
        "meta_object_name": "FENGYUN 1C DEB",
        "meta_object_id": "1999-025BVE",
        "meta_epoch": "2025-12-08T13:06:26.061408",
        "meta_mean_motion": 14.18509357,
        "meta_eccentricity": 0.02993608,
        "meta_inclination": 99.0866,
        "meta_ra_of_asc_node": 272.3889,
        "meta_arg_of_pericenter": 320.8118,
        "meta_mean_anomaly": 37.1716,
        "meta_ephemeris_type": 0,
        "meta_classification_type": "U",
        "meta_norad_cat_id": 31466,
        "meta_element_set_no": 999,
        "meta_rev_at_epoch": 96269,
        "meta_bstar": 0.00049531986,
        "meta_mean_motion_dot": 1.542e-05,
        "meta_mean_motion_ddot": 0,
        "tle_line1": "1 31466U 99025BVE 25342.54613497  .00001542  00000+0  49532-3 0  9997",
        "tle_line2": "2 31466  99.0866 272.3889 0299360 320.8118  37.1716 14.18509357962691"
      },
      "geometry": {
        "type": "Point",
        "coordinates": [
          -106.52387112875606,
          64.23038302348328
        ]
      }
    },
    {
      "type": "Feature",
      "properties": {
        "norad_id": 31468,
        "name": "FENGYUN 1C DEB",
        "group": "fengyun-1c-debris",
        "lat": 55.756746771735045,
        "lon": 171.40658451424665,
        "alt_km": 662.6986031535107,
        "timestamp": "2025-12-08T23:34:04.252085+00:00",
        "meta_object_name": "FENGYUN 1C DEB",
        "meta_object_id": "1999-025BVG",
        "meta_epoch": "2025-12-07T05:29:24.890784",
        "meta_mean_motion": 14.46565121,
        "meta_eccentricity": 0.01663478,
        "meta_inclination": 98.1709,
        "meta_ra_of_asc_node": 337.5297,
        "meta_arg_of_pericenter": 183.8861,
        "meta_mean_anomaly": 176.1053,
        "meta_ephemeris_type": 0,
        "meta_classification_type": "U",
        "meta_norad_cat_id": 31468,
        "meta_element_set_no": 999,
        "meta_rev_at_epoch": 67292,
        "meta_bstar": 0.00064627519,
        "meta_mean_motion_dot": 2.719e-05,
        "meta_mean_motion_ddot": 0,
        "tle_line1": "1 31468U 99025BVG 25341.22876031  .00002719  00000+0  64628-3 0  9998",
        "tle_line2": "2 31468  98.1709 337.5297 0166347 183.8861 176.1053 14.46565121672920"
      },
      "geometry": {
        "type": "Point",
        "coordinates": [
          171.40658451424665,
          55.756746771735045
        ]
      }
    },
    {
      "type": "Feature",
      "properties": {
        "norad_id": 31473,
        "name": "FENGYUN 1C DEB",
        "group": "fengyun-1c-debris",
        "lat": 38.06699443537787,
        "lon": -157.12361123652303,
        "alt_km": 809.3980267869938,
        "timestamp": "2025-12-08T23:34:04.252097+00:00",
        "meta_object_name": "FENGYUN 1C DEB",
        "meta_object_id": "1999-025BVM",
        "meta_epoch": "2025-12-08T08:05:06.154656",
        "meta_mean_motion": 14.29738974,
        "meta_eccentricity": 0.0065146,
        "meta_inclination": 98.5454,
        "meta_ra_of_asc_node": 15.4808,
        "meta_arg_of_pericenter": 28.0119,
        "meta_mean_anomaly": 34.0859,
        "meta_ephemeris_type": 0,
        "meta_classification_type": "U",
        "meta_norad_cat_id": 31473,
        "meta_element_set_no": 999,
        "meta_rev_at_epoch": 69458,
        "meta_bstar": 0.0020016639,
        "meta_mean_motion_dot": 5.217e-05,
        "meta_mean_motion_ddot": 0,
        "tle_line1": "1 31473U 99025BVM 25342.33687679  .00005217  00000+0  20017-2 0  9994",
        "tle_line2": "2 31473  98.5454  15.4808 0065146  28.0119  34.0859 14.29738974694589"
      },
      "geometry": {
        "type": "Point",
        "coordinates": [
          -157.12361123652303,
          38.06699443537787
        ]
      }
    },
    {
      "type": "Feature",
      "properties": {
        "norad_id": 31474,
        "name": "FENGYUN 1C DEB",
        "group": "fengyun-1c-debris",
        "lat": -34.848635645927466,
        "lon": 35.21448224027198,
        "alt_km": 879.5738538813112,
        "timestamp": "2025-12-08T23:34:04.252108+00:00",
        "meta_object_name": "FENGYUN 1C DEB",
        "meta_object_id": "1999-025BVN",
        "meta_epoch": "2025-12-07T22:12:02.002752",
        "meta_mean_motion": 14.10557869,
        "meta_eccentricity": 0.00717008,
        "meta_inclination": 99.144,
        "meta_ra_of_asc_node": 27.7007,
        "meta_arg_of_pericenter": 219.3821,
        "meta_mean_anomaly": 140.2123,
        "meta_ephemeris_type": 0,
        "meta_classification_type": "U",
        "meta_norad_cat_id": 31474,
        "meta_element_set_no": 999,
        "meta_rev_at_epoch": 94902,
        "meta_bstar": 0.0019704152,
        "meta_mean_motion_dot": 3.552e-05,
        "meta_mean_motion_ddot": 0,
        "tle_line1": "1 31474U 99025BVN 25341.92502318  .00003552  00000+0  19704-2 0  9996",
        "tle_line2": "2 31474  99.1440  27.7007 0071700 219.3821 140.2123 14.10557869949025"
      },
      "geometry": {
        "type": "Point",
        "coordinates": [
          35.21448224027198,
          -34.848635645927466
        ]
      }
    },
    {
      "type": "Feature",
      "properties": {
        "norad_id": 31475,
        "name": "FENGYUN 1C DEB",
        "group": "fengyun-1c-debris",
        "lat": -80.72310544964503,
        "lon": -22.978077042589483,
        "alt_km": 901.0775291500095,
        "timestamp": "2025-12-08T23:34:04.252118+00:00",
        "meta_object_name": "FENGYUN 1C DEB",
        "meta_object_id": "1999-025BVP",
        "meta_epoch": "2025-12-07T22:58:00.354720",
        "meta_mean_motion": 14.38167785,
        "meta_eccentricity": 0.02115749,
        "meta_inclination": 98.9393,
        "meta_ra_of_asc_node": 230.4536,
        "meta_arg_of_pericenter": 121.171,
        "meta_mean_anomaly": 241.041,
        "meta_ephemeris_type": 0,
        "meta_classification_type": "U",
        "meta_norad_cat_id": 31475,
        "meta_element_set_no": 999,
        "meta_rev_at_epoch": 96010,
        "meta_bstar": 0.00078560973,
        "meta_mean_motion_dot": 3.04e-05,
        "meta_mean_motion_ddot": 0,
        "tle_line1": "1 31475U 99025BVP 25341.95694855  .00003040  00000+0  78561-3 0  9997",
        "tle_line2": "2 31475  98.9393 230.4536 0211574 121.1710 241.0410 14.38167785960107"
      },
      "geometry": {
        "type": "Point",
        "coordinates": [
          -22.978077042589483,
          -80.72310544964503
        ]
      }
    },
    {
      "type": "Feature",
      "properties": {
        "norad_id": 31476,
        "name": "FENGYUN 1C DEB",
        "group": "fengyun-1c-debris",
        "lat": -76.76334825680463,
        "lon": 98.20644849428959,
        "alt_km": 830.496675209487,
        "timestamp": "2025-12-08T23:34:04.252128+00:00",
        "meta_object_name": "FENGYUN 1C DEB",
        "meta_object_id": "1999-025BVQ",
        "meta_epoch": "2025-12-08T03:40:59.458080",
        "meta_mean_motion": 14.22051596,
        "meta_eccentricity": 0.00532227,
        "meta_inclination": 98.898,
        "meta_ra_of_asc_node": 55.6112,
        "meta_arg_of_pericenter": 184.7369,
        "meta_mean_anomaly": 175.3312,
        "meta_ephemeris_type": 0,
        "meta_classification_type": "U",
        "meta_norad_cat_id": 31476,
        "meta_element_set_no": 999,
        "meta_rev_at_epoch": 95634,
        "meta_bstar": 0.0021369454,
        "meta_mean_motion_dot": 4.752e-05,
        "meta_mean_motion_ddot": 0,
        "tle_line1": "1 31476U 99025BVQ 25342.15346595  .00004752  00000+0  21369-2 0  9990",
        "tle_line2": "2 31476  98.8980  55.6112 0053222 184.7369 175.3312 14.22051596956341"
      },
      "geometry": {
        "type": "Point",
        "coordinates": [
          98.20644849428959,
          -76.76334825680463
        ]
      }
    },
    {
      "type": "Feature",
      "properties": {
        "norad_id": 31477,
        "name": "FENGYUN 1C DEB",
        "group": "fengyun-1c-debris",
        "lat": -75.14059527327217,
        "lon": 8.903988417166293,
        "alt_km": 927.180594689069,
        "timestamp": "2025-12-08T23:34:04.252138+00:00",
        "meta_object_name": "FENGYUN 1C DEB",
        "meta_object_id": "1999-025BVR",
        "meta_epoch": "2025-12-08T10:14:40.496640",
        "meta_mean_motion": 14.02917799,
        "meta_eccentricity": 0.01104791,
        "meta_inclination": 98.8852,
        "meta_ra_of_asc_node": 332.2346,
        "meta_arg_of_pericenter": 40.8925,
        "meta_mean_anomaly": 320.0464,
        "meta_ephemeris_type": 0,
        "meta_classification_type": "U",
        "meta_norad_cat_id": 31477,
        "meta_element_set_no": 999,
        "meta_rev_at_epoch": 95343,
        "meta_bstar": 0.00035388699,
        "meta_mean_motion_dot": 5.36e-06,
        "meta_mean_motion_ddot": 0,
        "tle_line1": "1 31477U 99025BVR 25342.42685760  .00000536  00000+0  35389-3 0  9995",
        "tle_line2": "2 31477  98.8852 332.2346 0110479  40.8925 320.0464 14.02917799953439"
      },
      "geometry": {
        "type": "Point",
        "coordinates": [
          8.903988417166293,
          -75.14059527327217
        ]
      }
    }
  ]
}